{"version": 0.6, "generator": "Overpass API 0.7.62.1 084b4234", "osm3s": {"timestamp_osm_base": "2024-05-30T06:56:21Z", "copyright": "The data included in this document is from www.openstreetmap.org. The data is made available under ODbL."}, "elements": [{"type": "node", "id": 33793219, "lat": 60.3902986, "lon": 5.3325408}, {"type": "node", "id": 171527713, "lat": 60.3621254, "lon": 5.2334215, "tags": {"amenity": "cafe", "source": "local_knowledge"}}, {"type": "node", "id": 290608131, "lat": 60.395093, "lon": 5.329417, "tags": {"amenity": "cafe", "cuisine": "coffee_shop", "name": "Kaffemisjonen", "opening_hours": "Mo-Fr 07:30-18:00; Sa-Su 10:00-18:00", "phone": "+47 45 05 03 60", "website": "https://www.kaffemisjonen.no/"}}, {"type": "node", "id": 296552516, "lat": 60.4213233, "lon": 5.3997062, "tags": {"amenity": "cafe", "internet_access": "no", "name": "Vikinghytten", "note": "Eies og drives av Turn- og Idrettsforeningen Viking, Bergen. Bygget av medlemmer i1913.", "opening_hours": "Su 10:30-14:30; Jul off"}}, {"type": "node", "id": 297274794, "lat": 60.391885, "lon": 5.33065, "tags": {"alt_name": "Cafe Aura", "amenity": "cafe", "contact:facebook": "https://www.facebook.com/Caf%C3%A9-Aura-143308959046414/", "name": "Aura Cafe", "opening_hours": "Mo-Fr 08:00-21:00; Sa 09:00-19:00; Su 10:00-19:00", "outdoor_seating": "yes", "phone": "+47 55 36 59 70", "website": "http://www.cafeaura.no/", "wheelchair": "limited"}}, {"type": "node", "id": 309064759, "lat": 60.391848, "lon": 5.319872, "tags": {"amenity": "cafe", "bar": "yes", "diet:vegetarian": "yes", "email": "cafeopera@engengruppen.no", "internet_access": "wlan", "internet_access:fee": "no", "name": "Caf\u00e9 Opera", "opening_hours": "Mo-Tu 10:00-00:30; We-Fr 10:00-03:30; Sa 11:00-03:30; Su 11:00-23:00", "outdoor_seating": "yes", "phone": "+47 55 23 03 15", "website": "https://www.cafeopera.org/", "wheelchair": "yes", "wheelchair:description": "Bit heavy doors"}}, {"type": "node", "id": 314774449, "lat": 60.3693562, "lon": 5.5593731, "tags": {"amenity": "cafe", "name": "Redningshytten", "opening_hours": "Su 10:00-15:00"}}, {"type": "node", "id": 391946418, "lat": 60.387802, "lon": 5.327947, "tags": {"amenity": "cafe", "cuisine": "coffee_shop", "name": "Kaffeboksen", "operator": "Kaffemisjonen"}}, {"type": "node", "id": 406569513, "lat": 60.256291, "lon": 5.271667, "tags": {"amenity": "cafe", "name": "Blondehuset", "website": "https://www.uib.no/arboretet/plantesamlingene/arboretet/tematiske-samlinger/blondehushagen", "wheelchair": "limited"}}, {"type": "node", "id": 414768449, "lat": 60.389333, "lon": 5.322929, "tags": {"amenity": "cafe", "diet:vegetarian": "yes", "level": "0", "name": "Cafe Spesial", "opening_hours": "Tu-Th,Su 12:00-21:00, Fr,Sa 12:30-22:00, Su 13:30-22:30, Mo 15:00-21:00", "phone": "+47 55 60 46 51", "wheelchair": "yes"}}, {"type": "node", "id": 506226949, "lat": 60.38807, "lon": 5.32559, "tags": {"alt_name": "Chaos Coffee Bar", "amenity": "cafe", "contact:facebook": "https://www.facebook.com/kafechaos/", "cuisine": "coffee_shop", "name": "Kaf\u00e9 Chaos", "outdoor_seating": "yes", "phone": "+47 55 32 15 50", "wheelchair": "yes"}}, {"type": "node", "id": 1140436517, "lat": 60.336766, "lon": 5.346524, "tags": {"amenity": "cafe", "name": "Colonialen", "opening_hours": "Mo-Fr 09:00-17:00; Sa 09:00-16:00", "outdoor_seating": "yes", "shop": "convenience", "website": "https://colonialen.no/", "wheelchair": "no"}}, {"type": "node", "id": 1374482759, "lat": 60.388129, "lon": 5.324197, "tags": {"amenity": "cafe", "contact:facebook": "http://www.facebook.com/blomkaffebar", "cuisine": "coffee_shop", "diet:vegetarian": "yes", "email": "blom@kaffemisjonen.no", "level": "0", "name": "BLOM", "opening_hours": "Mo-Fr 09:00-15:00; Sa 10:00-16:00", "operator": "Kaffemisjonen", "outdoor_seating": "yes", "phone": "+47 45 050362", "website": "https://www.kaffemisjonen.no/"}}, {"type": "node", "id": 1416690698, "lat": 60.371909, "lon": 5.4093319}, {"type": "node", "id": 1652908499, "lat": 60.390086, "lon": 5.325081, "tags": {"amenity": "cafe", "contact:facebook": "https://www.facebook.com/Smakverket/", "cuisine": "coffee_shop", "name": "Smakverket", "opening_hours": "Mo-Su 11:00-17:00", "phone": "+47 941 32 247", "website": "https://www.smakverket.no/", "wheelchair": "yes"}}, {"type": "node", "id": 1717532474, "lat": 60.394863, "lon": 5.314735, "tags": {"amenity": "cafe", "check_date:opening_hours": "2022-02-10", "contact:facebook": "https://www.facebook.com/klosteretkaffebar/", "email": "kafelovetann@gmail.com", "internet_access": "wlan", "internet_access:fee": "no", "internet_access:ssid": "Klosteret gjestenett", "level": "0", "name": "L\u00f8vetann kaffebar", "opening_hours": "Mo-Su 11:00-20:00", "outdoor_seating": "yes", "phone": "+47 53 50 02 60", "toilets": "yes", "wheelchair": "no"}}, {"type": "node", "id": 1786937620, "lat": 60.384706, "lon": 5.324121, "tags": {"amenity": "cafe", "cuisine": "coffee_shop", "diet:vegetarian": "yes", "email": "post@nobelbopel.no", "indoor_seating": "yes", "name": "Nobel Bobel", "opening_hours": "Th,Fr 10:00-22:00; Sa-We 10:00-20:00", "outdoor_seating": "yes", "phone": "+47 92207754"}}, {"type": "node", "id": 2377165748, "lat": 60.3716922, "lon": 5.4092167}, {"type": "node", "id": 2377165751, "lat": 60.371745, "lon": 5.4093571}, {"type": "node", "id": 2377165753, "lat": 60.3717865, "lon": 5.4092931}, {"type": "node", "id": 2377165755, "lat": 60.3718428, "lon": 5.4094427}, {"type": "node", "id": 2377165757, "lat": 60.3718277, "lon": 5.4092281}, {"type": "node", "id": 2377165759, "lat": 60.3718524, "lon": 5.4092939}, {"type": "node", "id": 2377165761, "lat": 60.3718812, "lon": 5.4092591}, {"type": "node", "id": 2377165763, "lat": 60.3718789, "lon": 5.4092531}, {"type": "node", "id": 2377165765, "lat": 60.3719111, "lon": 5.4093375}, {"type": "node", "id": 2377165767, "lat": 60.3719011, "lon": 5.4092285}, {"type": "node", "id": 2377165769, "lat": 60.3719286, "lon": 5.4093017}, {"type": "node", "id": 2440086029, "lat": 60.392958, "lon": 5.326388, "tags": {"amenity": "cafe", "cuisine": "coffee_shop", "level": "1", "name": "Wayne's Coffe", "opening_hours": "Mo-Fr 07:00-20:00; Sa 08:00-18:00", "phone": "+47 91 56 64 10", "website": "https://www.waynescoffee.no/"}}, {"type": "node", "id": 2493393224, "lat": 60.394974, "lon": 5.326088, "tags": {"amenity": "cafe", "fixme": "Er dette kanskje en pub? Til tross for navnet.", "name": "Harbour Cafe", "opening_hours": "Mo-Su 11:00-03:00", "outdoor_seating": "yes", "phone": "+47 55 30 09 00", "source": "survey", "website": "https://harbourcafe.no/"}}, {"type": "node", "id": 2493393237, "lat": 60.391543, "lon": 5.326059, "tags": {"amenity": "cafe", "brand": "Godt Br\u00f8d", "cuisine": "coffee_shop", "diet:vegetarian": "yes", "indoor_seating": "yes", "name": "Godt Br\u00f8d", "opening_hours": "Mo-Fr 07:00-18:00; Sa-Su 08:00-18:00", "outdoor_seating": "yes", "website": "https://www.godtbrod.no/", "wheelchair": "yes"}}, {"type": "node", "id": 2496218886, "lat": 60.382587, "lon": 5.326564, "tags": {"amenity": "cafe", "cuisine": "coffee_shop", "email": "post@bergenkaffebrenneri.no", "internet_access": "wlan", "internet_access:fee": "no", "internet_access:ssid": "BKB", "name": "Bergen Kaffebrenneri", "opening_hours": "Mo-Fr 08:00-19:00; Sa-Su 12:00-19:00; Sa 11:00-18:00", "outdoor_seating": "yes"}}, {"type": "node", "id": 2612690429, "lat": 60.3899893, "lon": 5.3227645, "tags": {"amenity": "cafe", "level": "-1", "name": "Mommona Kaffeteria", "phone": "+47 45081673", "wheelchair": "no"}}, {"type": "node", "id": 2626779736, "lat": 60.395194, "lon": 5.315071, "tags": {"amenity": "cafe", "cuisine": "coffee_shop", "description": "Her finner du et rolig og avslappet milj\u00f8, der du kan spise og drikke godt. Vi har gratis internett.", "description:en": "You are welcome to enjoy a calm environment, where you can eat and drink well. We offer free wi-fi, and encourage you to stay for as long as you want.", "internet_access": "yes", "name": "Hordaland kunstsenter kaf\u00e9", "name:en": "Art Centre Caf\u00e9", "opening_hours": "We-Su 12:00-18:00", "outdoor_seating": "yes", "phone": "+47 55 90 85 90", "website": "https://www.kunstsenter.no/bokhandel-og-kaf", "wheelchair": "yes"}}, {"type": "node", "id": 2635105604, "lat": 60.389775, "lon": 5.326345, "tags": {"amenity": "cafe", "bar": "yes", "check_date:opening_hours": "2022-02-27", "contact:facebook": "https://www.facebook.com/LandmarkBergen", "email": "post@landmarkbergen.no", "facebook": "https://www.facebook.com/LandmarkBergen/", "internet_access": "wlan", "internet_access:fee": "no", "name": "Landmark Bar & Cafe", "opening_hours": "Mo-Su 11:00-17:00", "outdoor_seating": "yes", "phone": "+47 90 25 09 01", "website": "https://landmarkbergen.no/", "wheelchair": "limited", "wheelchair:description": "Accessible via side entrance"}}, {"type": "node", "id": 2689681122, "lat": 60.383119, "lon": 5.323664, "tags": {"amenity": "cafe", "contact:facebook": "https://www.facebook.com/mollarencafe", "diet:vegetarian": "yes", "email": "post@mollarencafe.no", "name": "M\u00f8llaren Caf\u00e9", "opening_hours": "Tu-Th 15:00-23:00, Fr,Sa 15:00-01:00, Su 15:00-24:00; Mo off", "outdoor_seating": "yes", "phone": "+47 55 70 57 99", "website": "http://www.mollarencafe.no/"}}, {"type": "node", "id": 2707135020, "lat": 60.395726, "lon": 5.317533, "tags": {"amenity": "cafe", "cuisine": "coffee_shop", "email": "post@dromedar.no", "indoor_seating": "yes", "internet_access": "wlan", "internet_access:ssid": "Dromedar", "level": "0", "name": "Dromedar kaffebar", "opening_hours": "Mo-Fr 07:30-18:00; Sa 09:30-18:00; Su 11:30-17:00", "outdoor_seating": "yes", "website": "https://dromedar.no/", "wheelchair": "limited"}}, {"type": "node", "id": 2840313641, "lat": 60.3937123, "lon": 5.3221084, "tags": {"amenity": "cafe", "name": "Plassen", "opening_hours": "Mo-Th 11:00-18:00; Fr 11:00-23:00; Sa 11:00-19:00; Su 12:00-17:00", "shop": "vacant"}}, {"type": "node", "id": 2840313656, "lat": 60.3931479, "lon": 5.3219707, "tags": {"amenity": "cafe", "cuisine": "coffee_shop", "name": "Lie Nilsen", "wheelchair": "no"}}, {"type": "node", "id": 2840313660, "lat": 60.3908577, "lon": 5.3306201, "tags": {"amenity": "cafe", "check_date": "2022-07-25", "level": "0", "name": "Kaigaten Deli", "opening_hours": "Tu-We 11:00-17:00; Th-Sa 11:00-21:00", "operator": "Litler\u00e9"}}, {"type": "node", "id": 2840313663, "lat": 60.386401, "lon": 5.323061, "tags": {"amenity": "cafe", "cuisine": "coffee_shop", "diet:vegetarian": "yes", "email": "kafe.studentsenteret@sib.no", "indoor_seating": "yes", "name": "Muntlig skjenk & spiseri", "opening_hours": "Mo-Fr 11:30-18:00; Sa,Su off", "operator": "Sammen", "outdoor_seating": "yes", "phone": "+47 55 54 51 57", "toilets:wheelchair": "yes", "wheelchair": "yes"}}, {"type": "node", "id": 2960110108, "lat": 60.361571, "lon": 5.388868}, {"type": "node", "id": 2960110109, "lat": 60.361602, "lon": 5.388745}, {"type": "node", "id": 2960110110, "lat": 60.361635, "lon": 5.388934}, {"type": "node", "id": 2960110111, "lat": 60.361666, "lon": 5.388811}, {"type": "node", "id": 3126014681, "lat": 60.387524, "lon": 5.322169, "tags": {"alt_name": "Christie Caf\u00e9", "amenity": "cafe", "cuisine": "coffee_shop", "email": "ragnhild@godtbrod.no", "internet_access": "wlan", "internet_access:fee": "no", "name": "Godt Br\u00f8d Mus\u00e9plassen", "opening_hours": "Mo-Fr 08:00-15:00; Sa 11:00-17:00", "operator": "Godt Br\u00f8d", "outdoor_seating": "yes", "phone": "+47 55 32 62 00", "shop": "bakery", "smoking": "no", "toilets": "yes", "website": "https://www.godtbrod.no/Bakeverksted/Museplassen", "wheelchair": "yes"}}, {"type": "node", "id": 3150268486, "lat": 60.395812, "lon": 5.326587, "tags": {"amenity": "cafe", "brand": "Starbucks", "brand:wikidata": "Q37158", "brand:wikipedia": "en:Starbucks", "cuisine": "coffee_shop", "internet_access": "wlan", "name": "Starbucks", "official_name": "Starbucks Coffee", "opening_hours": "Mo-Sa 08:00-20:00; Su 09:00-20:00", "phone": "+47 467 42 557", "takeaway": "yes", "website": "https://www.starbucks.no/store/1006292/no/kj%C3%B8ttbasaren/vetrlidsallmenningen-2-bryggen-bergen-12-5014"}}, {"type": "node", "id": 3644189973, "lat": 60.387747, "lon": 5.324448, "tags": {"amenity": "cafe", "contact:instagram": "https://www.instagram.com/klee_kaffe/", "email": "kontakt@kleekaffe.no", "name": "Klee Kaffe", "opening_hours": "Mo-We 11:00-10:00; Th-Sa 11:00-24:00; Su 10:00-16:00", "website": "https://www.kleekaffe.no/"}}, {"type": "node", "id": 3811407297, "lat": 60.3957763, "lon": 5.3082298, "tags": {"amenity": "cafe", "email": "kippers@grandterminus.no", "name": "Kippers USF Bar & Kaf\u00e9", "opening_hours": "Mo-Su 11:00-23:00", "outdoor_seating": "yes", "phone": "+47 55 30 40 80", "website": "https://usf.no/no/bar-og-kaf%C3%A9/", "wheelchair": "yes"}}, {"type": "node", "id": 3816763352, "lat": 60.3776605, "lon": 5.3325704, "tags": {"amenity": "cafe", "name": "Cafe Viken", "opening_hours": "Mo-Fr 07:00-17:00"}}, {"type": "node", "id": 3938141627, "lat": 60.3936283, "lon": 5.3284453, "tags": {"amenity": "cafe", "name": "Litteraturhuset Bergen", "opening_hours": "Mo-Th 09:00-23:00; Fr 09:00-24:00; Sa 10:00-24:00", "operator": "Colonialen", "toilets:wheelchair": "yes", "website": "https://www.litthusbergen.no/", "wheelchair": "yes", "wheelchair:description": "Accessible from entrance in Vestre Skostredet"}}, {"type": "node", "id": 3938248121, "lat": 60.382264, "lon": 5.3252, "tags": {"amenity": "cafe", "name": "Baker Brun Marineholmen", "opening_hours": "Mo-Fr 07:30-17:00; Sa 09:00-17:00; Su 11:00-17:00"}}, {"type": "node", "id": 3938248123, "lat": 60.369009, "lon": 5.35036, "tags": {"amenity": "cafe", "cuisine": "coffee_shop", "delivery": "no", "internet_access": "wlan", "internet_access:fee": "no", "level": "0", "name": "Kronstad Stasjon kaffebar", "opening_hours": "Mo-Fr 07:30-17:00; Sa 07:30-17:00", "operator": "Sammen", "outdoor_seating": "no", "phone": "+47 55 587202", "website": "https://www.sammen.no/no/bergen/mat/copy_of_kronstad", "wheelchair": "yes"}}, {"type": "node", "id": 3938248124, "lat": 60.387763, "lon": 5.319832, "tags": {"amenity": "cafe", "cuisine": "coffee_shop", "diet:vegetarian": "yes", "indoor_seating": "yes", "name": "Sammen Kaffebar UB", "opening_hours": "Mo-Th 08:00-17:00; Fr 08:00-15:00; Sa,Su off", "operator": "Sammen", "outdoor_seating": "yes", "phone": "+47 55 584732", "wheelchair": "yes"}}, {"type": "node", "id": 3938248125, "lat": 60.390171, "lon": 5.314127, "tags": {"amenity": "cafe", "cuisine": "coffee_shop", "diet:vegetarian": "yes", "email": "coralie.peron@sammen.no", "name": "Sammen Dragefjellet", "opening_hours": "Mo-Fr 08:30-15:30; Sa,Su off", "operator": "Sammen", "phone": "+47 55545079", "toilets:wheelchair": "yes", "wheelchair": "yes"}}, {"type": "node", "id": 3942161721, "lat": 60.392581, "lon": 5.325645, "tags": {"amenity": "cafe", "cuisine": "coffee_shop", "email": "xhibition@solbrod.no", "level": "0", "name": "Solbr\u00f8d", "opening_hours": "Mo-Fr 08:00-20:00; Sa 09:00-18:00", "operator": "Solbr\u00f8d", "phone": "+47 55 31 90 60", "shop": "bakery", "website": "https://www.solbrod.no/", "wheelchair": "no"}}, {"type": "node", "id": 3942571944, "lat": 60.394461, "lon": 5.320998, "tags": {"amenity": "cafe", "cuisine": "coffee_shop", "name": "Colonialen Fetevare", "opening_hours": "Mo-Fr 08:00-18:00; Sa 10:00-18:00", "operator": "Colonialen", "website": "https://colonialen.no/", "wheelchair": "limited"}}, {"type": "node", "id": 3946138873, "lat": 60.3922198, "lon": 5.3257217, "tags": {"amenity": "cafe", "cuisine": "coffee_shop", "level": "0", "name": "Baker Brun", "opening_hours": "Mo-Fr 09:00-20:00; Sa 09:00-18:00", "wheelchair": "yes"}}, {"type": "node", "id": 3946150083, "lat": 60.393159, "lon": 5.3248787, "tags": {"amenity": "cafe", "cuisine": "coffee_shop", "level": "0", "name": "Dromedar", "opening_hours": "Mo-Fr 07:00-21:00; Sa 09:00-18:00"}}, {"type": "node", "id": 3946150088, "lat": 60.392991, "lon": 5.325482, "tags": {"amenity": "cafe", "cuisine": "coffee_shop", "level": "0", "name": "Kaffelade", "opening_hours": "Mo-Fr 09:00-21:00; Sa 09:00-18:00"}}, {"type": "node", "id": 3946150095, "lat": 60.3933842, "lon": 5.3251136, "tags": {"amenity": "cafe", "brand": "Joe & The Juice", "brand:wikidata": "Q26221514", "brand:wikipedia": "en:Joe & The Juice", "cuisine": "coffee_shop", "level": "0", "name": "Joe & The Juice", "opening_hours": "Mo-Fr 07:00-21:00; Sa 09:00-18:00; Su 10:00-18:00", "takeaway": "yes"}}, {"type": "node", "id": 3959784422, "lat": 60.392481, "lon": 5.332655, "tags": {"amenity": "cafe", "cuisine": "coffee_shop", "name": "Krohnhagen kaf\u00e8 og veksthus", "operator": "Kirkens Bymisjon i Bergen"}}, {"type": "node", "id": 3962005247, "lat": 60.390882, "lon": 5.323383, "tags": {"amenity": "cafe", "cuisine": "coffee_shop", "email": "brunello@bakerbrun.no", "name": "Brunello", "opening_hours": "Mo-Fr 08:00-17:00; Sa 09:00-17:00; Su 10:00-16:00", "operator": "Baker Brun", "phone": "+47 55 310235", "website": "http://www.bakerbrun.no/hvor-er-vi/brunello/", "wheelchair": "yes"}}, {"type": "node", "id": 3962005376, "lat": 60.390811, "lon": 5.33076, "tags": {"amenity": "cafe", "check_date": "2022-07-25", "contact:facebook": "https://www.facebook.com/pg/cafesanaabergen/", "email": "cafesanaa@gmail.com", "name": "Caf\u00e9 Sanaa", "toilets:wheelchair": "yes", "website": "http://sanaa.no/", "wheelchair": "yes"}}, {"type": "node", "id": 3962005405, "lat": 60.3940629, "lon": 5.317835, "tags": {"amenity": "cafe", "name": "Baker Brun"}}, {"type": "node", "id": 3964625271, "lat": 60.397462, "lon": 5.322644, "tags": {"amenity": "cafe", "cuisine": "coffee_shop", "name": "Baker Brun S\u00f8sterg\u00e5rden", "opening_hours": "Mo-Fr 07:00-21:00; Sa 09:00-21:00; Su 10:00-21:00", "outdoor_seating": "yes", "wheelchair": "no"}}, {"type": "node", "id": 3966509368, "lat": 60.3904795, "lon": 5.3187662, "tags": {"amenity": "cafe", "cuisine": "coffee_shop", "name": "Robin Hood Huset", "office": "yes", "opening_hours": "Fr-We 09:30-15:30; Th 09:30-20:00", "website": "https://www.robinhoodhuset.no/"}}, {"type": "node", "id": 3975600655, "lat": 60.38992, "lon": 5.332178, "tags": {"amenity": "cafe", "cuisine": "coffee_shop", "internet_access": "yes", "name": "Amalies Hage", "opening_hours": "Mo-Th 08:30-23:00; Fr 08:00-23:00; Sa 10:00-23:00; Su 12:00-17:00", "operator": "Bergen Offentlige Bibliotek", "website": "https://www.facebook.com/amalieshage/", "wheelchair": "yes"}}, {"type": "node", "id": 3975976559, "lat": 60.3894814, "lon": 5.3325106, "tags": {"amenity": "cafe", "cuisine": "coffee_shop", "email": "bakersmauet@bakerbrun.no", "internet_access": "wlan", "internet_access:fee": "no", "internet_access:ssid": "Baker Brun", "level": "0", "name": "Baker Brun", "opening_hours": "Mo-Fr 07:00-21:00; Sa 09:00-18:00; Su 11:00-17:00", "phone": "+47 93078002", "website": "https://bakerbrun.no/bakeriutsalg/bergen-storsenter/", "wheelchair": "yes"}}, {"type": "node", "id": 3975976568, "lat": 60.3895427, "lon": 5.3323454, "tags": {"amenity": "cafe", "branch": "Bergen Storsenter", "brand": "Espresso House", "brand:wikidata": "Q10489162", "cuisine": "coffee_shop", "internet_access": "wlan", "internet_access:fee": "no", "level": "0", "name": "Espresso House Bergen Storsenter", "opening_hours": "Mo-Fr 07:00-21:00, Sa 09:00-18:30, Su 09:00-20:00", "phone": "+47 21064821", "ref:espressohouse": "1085", "takeaway": "yes", "website": "https://no.espressohouse.com/coffee-shops/bergen-storsenter/", "wheelchair": "yes"}}, {"type": "node", "id": 3975976569, "lat": 60.3892813, "lon": 5.332379, "tags": {"amenity": "cafe", "cuisine": "ice_cream", "level": "0", "name": "Funky Frozen Yoghurt", "wheelchair": "yes"}}, {"type": "node", "id": 3980547231, "lat": 60.2990458, "lon": 5.377251, "tags": {"amenity": "cafe", "name": "Stallen", "opening_hours": "09:00-17:00"}}, {"type": "node", "id": 3993462187, "lat": 60.395089, "lon": 5.326637, "tags": {"amenity": "cafe", "name": "Christian II", "operator": "Bergen Vinstuer AS", "phone": "+4755323060"}}, {"type": "node", "id": 3997139338, "lat": 60.3929661, "lon": 5.3253609, "tags": {"amenity": "cafe", "cuisine": "coffee_shop", "level": "0", "name": "BIT", "opening_hours": "Mo-Fr 07:30-21:00; Sa 09:00-18:00", "wheelchair": "yes"}}, {"type": "node", "id": 4112033723, "lat": 60.39736, "lon": 5.324237, "tags": {"amenity": "cafe", "contact:facebook": "https://www.facebook.com/KafKafeBryggen/", "cuisine": "coffee_shop", "name": "Kaf", "opening_hours": "Mo-Su 11:00-17:00", "outdoor_seating": "yes", "phone": "+47 458 83 279"}}, {"type": "node", "id": 4112338197, "lat": 60.395179, "lon": 5.324922, "tags": {"amenity": "cafe", "cuisine": "coffee_shop", "level": "2", "name": "Steam Espresso Bar", "phone": "+47 55 55 31 55", "website": "https://www.zabr.no/barer/steam-espresso-bar/"}}, {"type": "node", "id": 4139184735, "lat": 60.389656, "lon": 5.321992, "tags": {"amenity": "cafe", "level": "2", "name": "Stjernesalen", "opening_hours": "Mo-We 11:30-23:00; Th 11:30-01:00; Fr 11:30-03:30; Sa 14:00-03:30", "operator": "Det Akademiske Kvarter", "outdoor_seating": "yes", "toilets:wheelchair": "yes", "wheelchair": "yes"}}, {"type": "node", "id": 4161981540, "lat": 60.396386, "lon": 5.329035, "tags": {"amenity": "cafe", "contact:facebook": "https://www.facebook.com/pages/Det-lille-Kaffekompaniet/323191094121", "cuisine": "coffee;cake", "loc_name": "Kaffekompaniet", "name": "Det Lille Kaffekompaniet", "opening_hours": "Mo-Su 10:00-18:00", "outdoor_seating": "yes", "phone": "+47 55 31 67 20", "toilets:access": "customers", "toilets:unisex": "yes", "toilets:wheelchair": "no", "wheelchair": "no"}}, {"type": "node", "id": 4183533610, "lat": 60.396775, "lon": 5.3100452, "tags": {"amenity": "cafe", "cuisine": "coffee_shop", "kitchen_hours": "Mo-Fr 12:30-14:30", "name": "Pensjonisten seniorcaf\u00e9", "opening_hours": "Mo-Su 12:30-15:30", "outdoor_seating": "no", "website": "http://www.nykirkehjemmet.no/"}}, {"type": "node", "id": 4183728801, "lat": 60.3825993, "lon": 5.325707, "tags": {"amenity": "cafe", "name": "Cornerbaren", "note": "If\u00f8lge \"liste over skjenkesteder i Bergen pr 10. mai 2016\" er Nobel Bopel her. De har bevilgning for \u00e5 selge \u00f8l, sprit og uteservering.", "opening_hours": "Tu-Th,Sa 14:00-20:00; Fr 16:00-20:00; Su 12:00-18:00; Mo off", "operator": "Nobel Bopel ANS", "outdoor_seating": "yes", "website": "https://www.cornerteateret.no/"}}, {"type": "node", "id": 4184940593, "lat": 60.38934, "lon": 5.332185, "tags": {"amenity": "cafe", "cuisine": "coffee_shop", "name": "Cafe Opus", "wheelchair": "yes"}}, {"type": "node", "id": 4235820747, "lat": 60.3490437, "lon": 5.291801, "tags": {"amenity": "cafe", "level": "1", "name": "Cafeen i 2"}}, {"type": "node", "id": 4235820784, "lat": 60.3489839, "lon": 5.2922096, "tags": {"amenity": "cafe", "cuisine": "coffee_shop", "level": "0", "name": "Solbr\u00f8d"}}, {"type": "node", "id": 4273619548, "lat": 60.3718301, "lon": 5.1803405, "tags": {"amenity": "cafe", "email": "post.rognaldsen@gmail.com", "level": "0", "name": "Rognaldsen Bakeri", "phone": "+47 48 20 42 12", "shop": "bakery", "website": "http://www.rognaldsen.net/"}}, {"type": "node", "id": 4387485070, "lat": 60.394055, "lon": 5.327962, "tags": {"amenity": "cafe", "cuisine": "ice_cream", "diet:vegetarian": "yes", "indoor_seating": "yes", "internet_access": "wlan", "internet_access:fee": "no", "level": "0", "name": "Fj\u00e5k", "opening_hours": "Mo-We 12:00-18:00; Th-Sa 12:00-20:00; Su 12:00-17:00", "outdoor_seating": "yes", "phone": "+47 928 73 112", "smoking": "no", "takeaway": "yes", "toilets": "no", "website": "https://fjaak.no/en/"}}, {"type": "node", "id": 4463023098, "lat": 60.4843207, "lon": 5.2956935, "tags": {"amenity": "cafe", "name": "Senter caf\u00e8en"}}, {"type": "node", "id": 4552310616, "lat": 60.3910613, "lon": 5.3215701, "tags": {"amenity": "cafe", "contact:city": "Bergen", "contact:housenumber": "21", "contact:postcode": "5014", "contact:street": "Vaskerelven", "diet:vegan": "yes", "diet:vegetarian": "yes", "email": "post@dailypot.no", "name": "Daily pot", "opening_hours": "Mo-Fr 11:00-18:00; Sa-Su 12:00-18:00", "phone": "+47 450 75 373", "website": "https://dailypot.no"}}, {"type": "node", "id": 4632665817, "lat": 60.3939945, "lon": 5.325583, "tags": {"amenity": "cafe", "name": "Kaffelade", "wheelchair": "yes"}}, {"type": "node", "id": 4729082664, "lat": 60.380479, "lon": 5.352476, "tags": {"amenity": "cafe", "name": "M\u00f8llendal Fetevare", "opening_hours": "Tu-Fr 10:00-17:00; Sa-Su 11:00-16:00", "phone": "+47 930 67 727", "shop": "deli", "website": "mollendalfetevare.no"}}, {"type": "node", "id": 4743388656, "lat": 60.378703, "lon": 5.352917, "tags": {"alt_name": "Hyssing produksjonsskole;Hyssingen Kaf\u00e8 og bakeri", "amenity": "cafe", "contact:facebook": "https://www.facebook.com/Hyssingen-Kafe-og-Bakeri-153905398548712/", "email": "espen.grimen@hfk.no", "name": "Hyssingen", "opening_hours": "Mo off; Tu-Fr 10:00-15:30; Sa-Su off", "operator": "Hordaland Fylkeskommune", "phone": "+47 97 19 60 55", "shop": "bakery", "website": "https://www.hordaland.no/nb-NO/skole/hyssingen-produksjonsskole/artikkelarkiv/hyssingen-kafe-og-bakeri/"}}, {"type": "node", "id": 4757491071, "lat": 60.385562, "lon": 5.32612}, {"type": "node", "id": 4759924631, "lat": 60.38425, "lon": 5.33352, "tags": {"amenity": "cafe", "contact:facebook": "https://www.facebook.com/kaffekroken112/", "diet:vegetarian": "yes", "name": "Hav a Java Kaffekroken", "opening_hours": "Mo-Fr 07:30-14:30"}}, {"type": "node", "id": 4818156433, "lat": 60.3903864, "lon": 5.3326867}, {"type": "node", "id": 4818156434, "lat": 60.3902151, "lon": 5.3327467}, {"type": "node", "id": 4818156435, "lat": 60.3903028, "lon": 5.3328926}, {"type": "node", "id": 4843690603, "lat": 60.385574, "lon": 5.326091}, {"type": "node", "id": 4843690604, "lat": 60.385534, "lon": 5.326172}, {"type": "node", "id": 4881542670, "lat": 60.3948184, "lon": 5.343523, "tags": {"air_conditioning": "yes", "amenity": "cafe", "indoor_seating": "yes", "name": "Cafe Fl\u00f8istuen", "opening_hours": "PH,Mo-Su 10:00-19:00", "outdoor_seating": "yes", "wheelchair": "yes"}}, {"type": "node", "id": 4907717243, "lat": 60.3902265, "lon": 5.3327185, "tags": {"entrance": "yes"}}, {"type": "node", "id": 4907717261, "lat": 60.3901744, "lon": 5.3328469}, {"type": "node", "id": 4907717262, "lat": 60.3902621, "lon": 5.3329927}, {"type": "node", "id": 4907717281, "lat": 60.3903557, "lon": 5.3329171, "tags": {"inscription": "NSB - Arbeidskamerater som falt i felles kamp for Norges frihet ... [navn] I takknemlighet - Jernbanens personale i Bergen distrikt", "memorial": "plaque", "operator": "Norsk Jernbanemuseum", "website": "https://kulturpunkt.org/7767"}}, {"type": "node", "id": 4907717287, "lat": 60.3903811, "lon": 5.3328545, "tags": {"entrance": "main", "level": "0"}}, {"type": "node", "id": 4912557313, "lat": 60.3902744, "lon": 5.3329625, "tags": {"access": "no", "entrance": "yes"}}, {"type": "node", "id": 4912557314, "lat": 60.3902929, "lon": 5.332917, "tags": {"access": "no", "entrance": "yes"}}, {"type": "node", "id": 4912558321, "lat": 60.3903215, "lon": 5.3329236, "tags": {"entrance": "yes", "level": "0"}}, {"type": "node", "id": 4912558322, "lat": 60.3904239, "lon": 5.3327491}, {"type": "node", "id": 4912558323, "lat": 60.3903403, "lon": 5.3329549}, {"type": "node", "id": 4933872318, "lat": 60.3980147, "lon": 5.3206721, "tags": {"amenity": "cafe", "cuisine": "ice_cream", "name": "Hennig Olsen"}}, {"type": "node", "id": 5043493126, "lat": 60.287679, "lon": 5.2299056, "tags": {"amenity": "cafe", "brand": "Starbucks", "brand:wikidata": "Q37158", "brand:wikipedia": "en:Starbucks", "cuisine": "coffee_shop", "level": "1", "name": "Starbucks", "official_name": "Starbucks Coffee", "opening_hours": "Mo-Fr 04:15-21:45; Sa 04:00-19:15; Su 06:00-22:00", "takeaway": "yes"}}, {"type": "node", "id": 5043493131, "lat": 60.2874896, "lon": 5.2299733, "tags": {"amenity": "cafe", "brand": "Joe & The Juice", "brand:wikidata": "Q26221514", "brand:wikipedia": "en:Joe & The Juice", "cuisine": "coffee_shop", "level": "1", "name": "Joe & The Juice", "opening_hours": "Mo-Fr 04:15-21:45; Sa 04:00-19:15; Su 06:00-22:00", "takeaway": "yes"}}, {"type": "node", "id": 5043493143, "lat": 60.2881652, "lon": 5.2317354, "tags": {"amenity": "cafe", "branch": "Bergen flygplats", "brand": "Espresso House", "cuisine": "coffee_shop", "name": "Espresso House Bergen flygplats", "opening_hours": "Mo-Fr 07:00-21:00, Sa 08:00-18:00, Su 07:00-20:00", "phone": "+47 45940530", "ref:espressohouse": "1225", "website": "https://no.espressohouse.com/coffee-shops/bergen-flygplats/"}}, {"type": "node", "id": 5044539768, "lat": 60.3855975, "lon": 5.3329841, "tags": {"amenity": "cafe", "check_date:opening_hours": "2023-11-29", "cuisine": "coffee_shop", "diet:vegetarian": "yes", "level": "0", "name": "Dalucci", "opening_hours": "Mo-Fr 07:45-16:00"}}, {"type": "node", "id": 5137372061, "lat": 60.3928073, "lon": 5.3249077, "tags": {"amenity": "cafe", "level": "4", "name": "Byhyggen"}}, {"type": "node", "id": 5183987673, "lat": 60.3182084, "lon": 5.3534421, "tags": {"amenity": "cafe", "name": "Le Chef Cateringservice AS", "opening_hours": "Mo-Tu 10:00-18:00; We-Fr 10:00-22:00; Sa 11:00-22:00; Su 13:00-19:00", "outdoor_seating": "yes", "takeaway": "yes", "toilets": "yes", "wheelchair": "no"}}, {"type": "node", "id": 5191927598, "lat": 60.3926935, "lon": 5.3233028, "tags": {"air_conditioning": "yes", "amenity": "cafe", "branch": "Torgallmenningen", "brand": "Espresso House", "brand:wikidata": "Q10489162", "cuisine": "coffee_shop", "diet:vegetarian": "yes", "indoor_seating": "yes", "level": "0", "name": "Espresso House Torgallmenningen", "opening_hours": "Mo-Fr 07:00-22:00, Sa-Su 09:00-22:00", "outdoor_seating": "no", "phone": "+47 45940545", "ref:espressohouse": "1515", "smoking": "no", "takeaway": "yes", "website": "https://no.espressohouse.com/coffee-shops/torgallmenningen/"}}, {"type": "node", "id": 5235672801, "lat": 60.395874, "lon": 5.318791, "tags": {"amenity": "cafe", "fixme": "Har denne kafeen et mer spesifikt navn som hav a java grieg? N\u00e5r er den \u00e5pen?", "name": "Hav a Java"}}, {"type": "node", "id": 5368753166, "lat": 60.3453907, "lon": 5.2426404, "tags": {"amenity": "cafe", "name": "Bestemors Beste"}}, {"type": "node", "id": 5431428607, "lat": 60.3843181, "lon": 5.3290611, "tags": {"amenity": "cafe", "email": "daniela.solbue@sammen.no", "name": "Real kaffebar", "opening_hours": "Mo-Fr 08:00-15:00", "operator": "Sammen", "phone": "+47 90987469", "website": "https://www.sammen.no/no/bergen/mat/copy_of_kaffebar-ub"}}, {"type": "node", "id": 5443236821, "lat": 60.361764, "lon": 5.351162, "tags": {"amenity": "cafe", "contact:facebook": "https://www.facebook.com/cafeambrosia/", "cuisine": "coffee_shop", "email": "cafeambrosia125@gmail.com", "name": "Cafe Ambrosia", "opening_hours": "Mo off; Tu-Th 10:00-18:00; Fr 10:00-20:00; Sa 11:00-18:00; Su 11:00-17:00", "outdoor_seating": "yes", "phone": "+47959 38 162", "start_date": "2018-02-28", "takeaway": "yes", "wheelchair": "limited"}}, {"type": "node", "id": 5479989348, "lat": 60.367443, "lon": 5.35021, "tags": {"amenity": "cafe", "cuisine": "coffee_shop", "internet_access": "wlan", "name": "Albatrossen Kaffe", "opening_hours": "Mo-Fr 09:00-18:00,Sa-Su 10:00-18:00", "outdoor_seating": "yes", "website": "https://www.albatrossen-kaffe.no"}}, {"type": "node", "id": 5497438580, "lat": 60.391712, "lon": 5.322485, "tags": {"amenity": "cafe", "name": "Cafe MM"}}, {"type": "node", "id": 5528581007, "lat": 60.3173647, "lon": 5.354629, "tags": {"amenity": "cafe", "shop": "bakery"}}, {"type": "node", "id": 5696367683, "lat": 60.3604329, "lon": 5.3601131, "tags": {"amenity": "cafe", "name": "Land\u00e5s bakeri", "shop": "bakery"}}, {"type": "node", "id": 5839904652, "lat": 60.390963, "lon": 5.321712, "tags": {"alt_name": "Cafe Dromedar", "amenity": "cafe", "level": "0", "name": "Dromedar Kaffebar", "opening_hours": "Mo-Fr 08:00-18:00; Sa,Su 10:00-18:00", "outdoor_seating": "yes", "website": "https://www.dromedar.no/"}}, {"type": "node", "id": 6020217826, "lat": 60.378973, "lon": 5.3533298, "tags": {"amenity": "cafe", "contact:facebook": "https://www.facebook.com/kafemunck/", "name": "Kaf\u00e9 Munck", "opening_hours": "Mo-Fr 10:30-15:30; Sa-Su off"}}, {"type": "node", "id": 6237810394, "lat": 60.3907229, "lon": 5.3213744, "tags": {"amenity": "cafe", "brand": "Starbucks", "brand:wikidata": "Q37158", "brand:wikipedia": "en:Starbucks", "cuisine": "coffee_shop", "internet_access": "wlan", "internet_access:fee": "no", "name": "Starbucks", "official_name": "Starbucks Coffee", "opening_hours": "Mo-Fr 07:00-21:00; Sa 09:00-19:00; Sa 10:00-20:00", "takeaway": "yes", "website": "https://www.starbucks.no/store-locator/search/detail/1008256"}}, {"type": "node", "id": 6280685635, "lat": 60.3743323, "lon": 5.3595897, "tags": {"amenity": "cafe", "level": "0", "name": "Cafe Foaje", "opening_hours": "Mo-Fr 08:30-15:30"}}, {"type": "node", "id": 6280705646, "lat": 60.3743191, "lon": 5.359032, "tags": {"amenity": "cafe", "level": "3", "name": "Cafe3", "opening_hours": "Mo-Fr 07:30-18:00; Sa-Su 11:00-18:00; PH closed", "toilets": "yes"}}, {"type": "node", "id": 6374031526, "lat": 60.4664594, "lon": 5.3243429, "tags": {"amenity": "cafe", "name": "\u00c5sane grill & pizza", "toilets": "yes"}}, {"type": "node", "id": 6379628307, "lat": 60.3924938, "lon": 5.3155911, "tags": {"amenity": "cafe", "check_date": "2023-10-05", "contact:instagram": "instagram.com/lecafe.no", "cuisine": "french", "diet:vegetarian": "yes", "name": "Le Caf\u00e9 Pomme", "opening_hours": "Mo 08:00-18:00; We-Fr 08:00-18:00; Sa-su 10:00-16:00", "outdoor_seating": "no"}}, {"type": "node", "id": 6432625581, "lat": 60.3920928, "lon": 5.3276588, "tags": {"amenity": "cafe", "level": "0", "name": "Kilo & Gram"}}, {"type": "node", "id": 6832702708, "lat": 60.2989957, "lon": 5.3772687, "tags": {"amenity": "cafe", "name": "Pustibakken", "outdoor_seating": "yes", "toilets": "yes"}}, {"type": "node", "id": 6952516982, "lat": 60.2968856, "lon": 5.3306015, "tags": {"amenity": "cafe", "branch": "Lagunen", "brand": "Joe & The Juice", "brand:wikidata": "Q26221514", "brand:wikipedia": "en:Joe & The Juice", "cuisine": "coffee_shop", "fixme": "N\u00f8yaktig plassering innad p\u00e5 senteret", "name": "Joe & The Juice", "takeaway": "yes"}}, {"type": "node", "id": 6952575587, "lat": 60.391029, "lon": 5.331594, "tags": {"amenity": "cafe", "diet:vegan": "yes", "diet:vegetarian": "only", "name": "Kafe Solros", "opening_hours": "Tu-Sa 11:00-16:00", "website": "https://www.kafesolros.com"}}, {"type": "node", "id": 6952575588, "lat": 60.356605, "lon": 5.35907, "tags": {"amenity": "cafe", "name": "Spiseriet Cafe"}}, {"type": "node", "id": 7213752796, "lat": 60.4515398, "lon": 5.4623251, "tags": {"amenity": "cafe"}}, {"type": "node", "id": 7233878615, "lat": 60.2968223, "lon": 5.3299672, "tags": {"amenity": "cafe", "branch": "Lagunen", "brand": "Espresso House", "brand:wikidata": "Q10489162", "brand:wikipedia": "en:Espresso House", "cuisine": "coffee_shop", "name": "Espresso House Lagunen", "opening_hours": "Mo-Fr 09:30-21:00, Sa 09:30-18:00", "phone": "+47 45940537", "ref:espressohouse": "1226", "takeaway": "yes", "website": "https://no.espressohouse.com/coffee-shops/lagunen/"}}, {"type": "node", "id": 7233878626, "lat": 60.4654387, "lon": 5.3219331, "tags": {"amenity": "cafe", "branch": "\u00c5sane", "brand": "Espresso House", "brand:wikidata": "Q10489162", "cuisine": "coffee_shop", "name": "Espresso House \u00c5sane", "opening_hours": "Mo-Fr 09:00-21:00, Sa 09:00-18:00", "ref:espressohouse": "1886", "takeaway": "yes", "website": "https://no.espressohouse.com/coffee-shops/sane/"}}, {"type": "node", "id": 7274595059, "lat": 60.3944742, "lon": 5.3277371, "tags": {"amenity": "cafe", "name": "Inside Rock cafe"}}, {"type": "node", "id": 8855333770, "lat": 60.314522, "lon": 5.449228}, {"type": "node", "id": 8855333771, "lat": 60.314548, "lon": 5.449383}, {"type": "node", "id": 8855333772, "lat": 60.31442, "lon": 5.449466}, {"type": "node", "id": 8855333773, "lat": 60.31441, "lon": 5.449405}, {"type": "node", "id": 8855333774, "lat": 60.314408, "lon": 5.449406}, {"type": "node", "id": 8855333775, "lat": 60.314417, "lon": 5.449458}, {"type": "node", "id": 8855333776, "lat": 60.314398, "lon": 5.449471}, {"type": "node", "id": 8855333777, "lat": 60.314369, "lon": 5.449302}, {"type": "node", "id": 8855333778, "lat": 60.314467, "lon": 5.449238}, {"type": "node", "id": 8855333779, "lat": 60.314468, "lon": 5.449144}, {"type": "node", "id": 8855333780, "lat": 60.314392, "lon": 5.44914}, {"type": "node", "id": 8855333781, "lat": 60.314394, "lon": 5.449013}, {"type": "node", "id": 8855333782, "lat": 60.314463, "lon": 5.449017}, {"type": "node", "id": 8855333783, "lat": 60.314463, "lon": 5.449004}, {"type": "node", "id": 8855333784, "lat": 60.314497, "lon": 5.449006}, {"type": "node", "id": 8855333785, "lat": 60.314498, "lon": 5.4489}, {"type": "node", "id": 8855333786, "lat": 60.314556, "lon": 5.448903}, {"type": "node", "id": 8855333787, "lat": 60.314555, "lon": 5.448982}, {"type": "node", "id": 8855333788, "lat": 60.314575, "lon": 5.448983}, {"type": "node", "id": 8855333789, "lat": 60.314575, "lon": 5.449036}, {"type": "node", "id": 8855333790, "lat": 60.314567, "lon": 5.449035}, {"type": "node", "id": 8855333791, "lat": 60.314565, "lon": 5.449203}, {"type": "node", "id": 8855333792, "lat": 60.314522, "lon": 5.449201}, {"type": "node", "id": 8874675790, "lat": 60.223979, "lon": 5.2907895}, {"type": "node", "id": 8874675791, "lat": 60.223913, "lon": 5.290431}, {"type": "node", "id": 8874675792, "lat": 60.22398, "lon": 5.290381}, {"type": "node", "id": 8874675793, "lat": 60.224046, "lon": 5.2907395}, {"type": "node", "id": 8902287375, "lat": 60.2700516, "lon": 5.3267178}, {"type": "node", "id": 8902287376, "lat": 60.2700093, "lon": 5.3264111}, {"type": "node", "id": 8902287377, "lat": 60.270051, "lon": 5.3263877}, {"type": "node", "id": 8902287378, "lat": 60.270041, "lon": 5.326315}, {"type": "node", "id": 8902287379, "lat": 60.270082, "lon": 5.326292}, {"type": "node", "id": 8902287380, "lat": 60.270092, "lon": 5.3263647}, {"type": "node", "id": 8902287381, "lat": 60.2700984, "lon": 5.3263611}, {"type": "node", "id": 8902287382, "lat": 60.2701217, "lon": 5.32653}, {"type": "node", "id": 8902287383, "lat": 60.2701477, "lon": 5.3265154}, {"type": "node", "id": 8902287384, "lat": 60.2701653, "lon": 5.3266435}, {"type": "node", "id": 8902287385, "lat": 60.2701393, "lon": 5.3266581}, {"type": "node", "id": 8902287386, "lat": 60.2701407, "lon": 5.3266678}, {"type": "node", "id": 8902287387, "lat": 60.270104, "lon": 5.3266884}, {"type": "node", "id": 8902287388, "lat": 60.2701161, "lon": 5.326776}, {"type": "node", "id": 8902287389, "lat": 60.2700751, "lon": 5.326799}, {"type": "node", "id": 8902287390, "lat": 60.270063, "lon": 5.3267114}, {"type": "node", "id": 8902288123, "lat": 60.2565036, "lon": 5.3620971}, {"type": "node", "id": 8902288124, "lat": 60.2565025, "lon": 5.362096}, {"type": "node", "id": 8902288125, "lat": 60.2565606, "lon": 5.3618447}, {"type": "node", "id": 8902288126, "lat": 60.256665, "lon": 5.3619429}, {"type": "node", "id": 8902288127, "lat": 60.256609, "lon": 5.3621851}, {"type": "node", "id": 8902288128, "lat": 60.2567318, "lon": 5.3623006}, {"type": "node", "id": 8902288129, "lat": 60.2566834, "lon": 5.3625094}, {"type": "node", "id": 8902288130, "lat": 60.2565499, "lon": 5.3623839}, {"type": "node", "id": 8902288131, "lat": 60.25654, "lon": 5.3624268}, {"type": "node", "id": 8902288132, "lat": 60.256485, "lon": 5.3623751}, {"type": "node", "id": 8902288133, "lat": 60.256495, "lon": 5.3623321}, {"type": "node", "id": 8902288134, "lat": 60.2564662, "lon": 5.3623051}, {"type": "node", "id": 8902288135, "lat": 60.2564628, "lon": 5.3623198}, {"type": "node", "id": 8902288136, "lat": 60.2564299, "lon": 5.3622889}, {"type": "node", "id": 8902288137, "lat": 60.2564491, "lon": 5.3622058}, {"type": "node", "id": 8902288138, "lat": 60.2564732, "lon": 5.3622285}, {"type": "node", "id": 9001603192, "lat": 60.3902954, "lon": 5.3339822, "tags": {"amenity": "cafe", "contact:email": "store@wearebrgn.com", "contact:phone": "+47 91922301", "name": "BRGN", "shop": "clothes", "website": "https://brgn.com/"}}, {"type": "node", "id": 9084631058, "lat": 60.3781609, "lon": 5.3338952}, {"type": "node", "id": 9084631059, "lat": 60.3781234, "lon": 5.3338446}, {"type": "node", "id": 9084631060, "lat": 60.3782836, "lon": 5.3333593}, {"type": "node", "id": 9084631061, "lat": 60.3783211, "lon": 5.3334099}, {"type": "node", "id": 9105380301, "lat": 60.3717956, "lon": 5.4090576}, {"type": "node", "id": 9105380302, "lat": 60.371848, "lon": 5.4091969}, {"type": "node", "id": 9108476806, "lat": 60.385413, "lon": 5.326215}, {"type": "node", "id": 9108476807, "lat": 60.385399, "lon": 5.326199}, {"type": "node", "id": 9108476808, "lat": 60.38542, "lon": 5.326198}, {"type": "node", "id": 9108476809, "lat": 60.385432, "lon": 5.326193}, {"type": "node", "id": 9108476810, "lat": 60.385447, "lon": 5.326185}, {"type": "node", "id": 9108476811, "lat": 60.385462, "lon": 5.326172}, {"type": "node", "id": 9108476812, "lat": 60.385476, "lon": 5.326156}, {"type": "node", "id": 9108476813, "lat": 60.385488, "lon": 5.326137}, {"type": "node", "id": 9108476814, "lat": 60.3855, "lon": 5.326115}, {"type": "node", "id": 9108476815, "lat": 60.38551, "lon": 5.32609}, {"type": "node", "id": 9108476816, "lat": 60.385518, "lon": 5.326063}, {"type": "node", "id": 9108476817, "lat": 60.385525, "lon": 5.326033}, {"type": "node", "id": 9108476818, "lat": 60.38553, "lon": 5.326001}, {"type": "node", "id": 9108476819, "lat": 60.385534, "lon": 5.325967}, {"type": "node", "id": 9108476820, "lat": 60.385535, "lon": 5.325933}, {"type": "node", "id": 9108476821, "lat": 60.385534, "lon": 5.325898}, {"type": "node", "id": 9108476822, "lat": 60.38553, "lon": 5.325865}, {"type": "node", "id": 9108476823, "lat": 60.385615, "lon": 5.325837}, {"type": "node", "id": 9108476824, "lat": 60.385614, "lon": 5.325876}, {"type": "node", "id": 9108476825, "lat": 60.385612, "lon": 5.325914}, {"type": "node", "id": 9108476826, "lat": 60.385608, "lon": 5.325952}, {"type": "node", "id": 9108476827, "lat": 60.385602, "lon": 5.325989}, {"type": "node", "id": 9108476828, "lat": 60.385594, "lon": 5.326025}, {"type": "node", "id": 9108476829, "lat": 60.385585, "lon": 5.326059}, {"type": "node", "id": 9108476830, "lat": 60.385549, "lon": 5.326148}, {"type": "node", "id": 9108476831, "lat": 60.385518, "lon": 5.326193}, {"type": "node", "id": 9108476832, "lat": 60.385501, "lon": 5.326212}, {"type": "node", "id": 9108476833, "lat": 60.385484, "lon": 5.326226}, {"type": "node", "id": 9108476834, "lat": 60.385466, "lon": 5.326238}, {"type": "node", "id": 9108476835, "lat": 60.385447, "lon": 5.326245}, {"type": "node", "id": 9108476836, "lat": 60.385429, "lon": 5.326249}, {"type": "node", "id": 9108476837, "lat": 60.385414, "lon": 5.326249}, {"type": "node", "id": 9111925730, "lat": 60.4005372, "lon": 5.3597325}, {"type": "node", "id": 9111925731, "lat": 60.4005218, "lon": 5.3598198}, {"type": "node", "id": 9111925732, "lat": 60.4004638, "lon": 5.3597779}, {"type": "node", "id": 9111925733, "lat": 60.4004992, "lon": 5.3595771}, {"type": "node", "id": 9111925734, "lat": 60.4005171, "lon": 5.3595901}, {"type": "node", "id": 9111925735, "lat": 60.4005269, "lon": 5.3595347}, {"type": "node", "id": 9111925736, "lat": 60.4005541, "lon": 5.3595543}, {"type": "node", "id": 9111925737, "lat": 60.400556, "lon": 5.3595432}, {"type": "node", "id": 9111925738, "lat": 60.4006261, "lon": 5.3595939}, {"type": "node", "id": 9111925739, "lat": 60.4006078, "lon": 5.3596979}, {"type": "node", "id": 9111925740, "lat": 60.4006229, "lon": 5.3597088}, {"type": "node", "id": 9111925741, "lat": 60.4005922, "lon": 5.359883}, {"type": "node", "id": 9111925742, "lat": 60.4005369, "lon": 5.359843}, {"type": "node", "id": 9111925743, "lat": 60.4005542, "lon": 5.3597448}, {"type": "node", "id": 9424007622, "lat": 60.369787, "lon": 5.349845, "tags": {"amenity": "cafe", "cuisine": "coffee_shop;sandwich", "delivery": "no", "internet_access": "wlan", "internet_access:fee": "no", "level": "0", "name": "Kronstad Sidesporet Kaffebar", "opening_hours": "Mo-Fr 08:00-14:00", "operator": "Sammen", "outdoor_seating": "yes", "phone": "+47 55 587202", "takeaway": "no", "website": "https://www.sammen.no/no/bergen/mat/copy2_of_dragefjellet"}}, {"type": "node", "id": 9672109371, "lat": 60.3197541, "lon": 5.3305967, "tags": {"amenity": "cafe"}}, {"type": "node", "id": 9889707854, "lat": 60.3956172, "lon": 5.3530959}, {"type": "node", "id": 9889707855, "lat": 60.3957136, "lon": 5.3532857}, {"type": "node", "id": 9889707856, "lat": 60.3957516, "lon": 5.3532065}, {"type": "node", "id": 9889707857, "lat": 60.3956551, "lon": 5.3530168}, {"type": "node", "id": 9894595919, "lat": 60.3855707, "lon": 5.3259686, "tags": {"amenity": "cafe", "check_date:opening_hours": "2023-12-13", "name": "Kollektiv", "opening_hours:signed": "no", "outdoor_seating": "yes"}}, {"type": "node", "id": 10657575071, "lat": 60.346129, "lon": 5.352504, "tags": {"amenity": "cafe", "name": "Baker Brun", "opening_hours": "Mo-Fr 08:00-18:00, Sa 09:00-18:00, Su 11:00-17:00"}}, {"type": "node", "id": 11530933723, "lat": 60.3799744, "lon": 5.3244923, "tags": {"amenity": "cafe", "brand": "Godt Br\u00f8d", "brand:wikidata": "Q11972309", "cuisine": "coffee_shop", "diet:vegetarian": "yes", "indoor_seating": "yes", "name": "Godt Br\u00f8d", "organic": "yes", "outdoor_seating": "yes", "website": "https://www.godtbrod.no/"}}, {"type": "node", "id": 11559277268, "lat": 60.3191578, "lon": 5.3533456, "tags": {"amenity": "cafe", "branch": "Kanelsnurren Nesttun", "brand": "Kanelsnurren", "cuisine": "coffee_shop", "name": "Kanelsnurren", "outdoor_seating": "no", "website": "https://www.kanelsnurren.no/kafeer/nesttun-5"}}, {"type": "way", "id": 229080639, "nodes": [2377165753, 2377165755, 2377165765, 1416690698, 2377165769, 2377165767, 2377165761, 2377165763, 2377165759, 2377165757, 9105380302, 9105380301, 2377165748, 2377165751, 2377165753], "tags": {"amenity": "cafe", "building": "cabin", "hiking": "yes", "name": "Turnerhytten", "opening_hours": "Sa,Su 11:00-15:00", "ref:bygningsnr": "9496483"}}, {"type": "way", "id": 292458403, "nodes": [2960110111, 2960110109, 2960110108, 2960110110, 2960110111], "tags": {"amenity": "cafe", "building": "cabin", "hiking": "yes", "internet_access": "no", "layer": "1", "name": "Baunehytten", "opening_hours": "Su 11:00-16:00", "ref:bygningsnr": "13947945"}}, {"type": "way", "id": 337887564, "nodes": [8902288138, 8902288137, 8902288136, 8902288135, 8902288134, 8902288133, 8902288132, 8902288131, 8902288130, 8902288129, 8902288128, 8902288127, 8902288126, 8902288125, 8902288124, 8902288123, 8902288138], "tags": {"amenity": "cafe", "building": "yes", "name": "Fanas\u00e6ter", "ref:bygningsnr": "25615530"}}, {"type": "way", "id": 351695379, "nodes": [8855333792, 8855333791, 8855333790, 8855333789, 8855333788, 8855333787, 8855333786, 8855333785, 8855333784, 8855333783, 8855333782, 8855333781, 8855333780, 8855333779, 8855333778, 8855333777, 8855333776, 8855333775, 8855333774, 8855333773, 8855333772, 8855333771, 8855333770, 8855333792], "tags": {"amenity": "cafe", "building": "yes", "name": "Fanahytten", "ref:bygningsnr": "172943527"}}, {"type": "way", "id": 364984787, "nodes": [8902287390, 8902287389, 8902287388, 8902287387, 8902287386, 8902287385, 8902287384, 8902287383, 8902287382, 8902287381, 8902287380, 8902287379, 8902287378, 8902287377, 8902287376, 8902287375, 8902287390], "tags": {"amenity": "cafe", "building": "civic", "ref:bygningsnr": "13995966"}}, {"type": "way", "id": 418032306, "nodes": [9084631061, 9084631060, 9084631059, 9084631058, 9084631061], "tags": {"amenity": "cafe", "building": "commercial", "building:colour": "silver", "building:levels": "1", "email": "booking@colonialen.no", "internet_access": "wlan", "name": "Colonialen Kranen", "opening_hours": "Mo-Tu 08:00-18:00; We-Fr 08:00-22:00; Sa 13:00-22:00; Su 13:00-18:00", "phone": "+47 55 90 16 00", "ref:bygningsnr": "23568047", "takeaway": "yes", "website": "https://colonialen.no/kranen/"}}, {"type": "way", "id": 446699596, "nodes": [9111925743, 9111925742, 9111925741, 9111925740, 9111925739, 9111925738, 9111925737, 9111925736, 9111925735, 9111925734, 9111925733, 9111925732, 9111925731, 9111925730, 9111925743], "tags": {"amenity": "cafe", "building": "kiosk", "name": "Brushytten", "opening_hours": "Su,PH 11:00-16:00; Jun-Aug SH 11:00-19:00", "opening_hours:url": "https://www.brushytten.no/5-V%25C3%25A5re-%25C3%25A5pningstider", "place": "locality", "ref:bygningsnr": "25605977", "website": "https://www.brushytten.no/", "wikidata": "Q17760428", "wikipedia": "no:Brushytten"}}, {"type": "way", "id": 489583509, "nodes": [4818156433, 33793219, 4907717243, 4818156434]}, {"type": "way", "id": 492338361, "nodes": [9108476837, 9108476836, 9108476835, 9108476834, 9108476833, 9108476832, 9108476831, 4843690604, 9108476830, 4757491071, 4843690603, 9108476829, 9108476828, 9108476827, 9108476826, 9108476825, 9108476824, 9108476823, 9108476822, 9108476821, 9108476820, 9108476819, 9108476818, 9108476817, 9108476816, 9108476815, 9108476814, 9108476813, 9108476812, 9108476811, 9108476810, 9108476809, 9108476808, 9108476807, 9108476806, 9108476837]}, {"type": "way", "id": 500116204, "nodes": [4818156435, 4912557314, 4912557313, 4907717262]}, {"type": "way", "id": 500116206, "nodes": [4912558323, 4912558321, 4818156435]}, {"type": "way", "id": 500116207, "nodes": [4912558322, 4818156433]}, {"type": "way", "id": 500116210, "nodes": [4912558323, 4907717281, 4907717287, 4912558322]}, {"type": "way", "id": 500116211, "nodes": [4818156434, 4907717261]}, {"type": "way", "id": 500116213, "nodes": [4907717262, 4907717261]}, {"type": "way", "id": 766511549, "nodes": [8874675793, 8874675792, 8874675791, 8874675790, 8874675793], "tags": {"amenity": "cafe", "building": "transportation", "name": "Gullkroken", "ref:bygningsnr": "20737123"}}, {"type": "way", "id": 1078809075, "nodes": [9889707854, 9889707855, 9889707856, 9889707857, 9889707854], "tags": {"amenity": "cafe", "building": "yes", "indoor_seating": "yes", "name": "Skomakerstuen", "opening_hours": "Sa-Su 11:00-16:00; week 25-32 11:00-16:00", "outdoor_seating": "yes", "payment:cards": "yes", "payment:cash": "yes", "start_date": "2020-02-26", "website": "https://www.floyen.no/en/food-and-beverage/skomakerstuen-cafe/"}}, {"type": "relation", "id": 7230183, "members": [{"type": "way", "ref": 492338361, "role": "outer"}], "tags": {"amenity": "cafe", "building": "retail", "building:levels": "1", "name": "Pavilljongen", "ref:bygningsnr": "300533781", "roof:shape": "flat", "type": "multipolygon"}}, {"type": "relation", "id": 7329456, "members": [{"type": "way", "ref": 500116211, "role": "outer"}, {"type": "way", "ref": 489583509, "role": "outer"}, {"type": "way", "ref": 500116207, "role": "outer"}, {"type": "way", "ref": 500116210, "role": "outer"}, {"type": "way", "ref": 500116206, "role": "outer"}, {"type": "way", "ref": 500116204, "role": "outer"}, {"type": "way", "ref": 500116213, "role": "outer"}], "tags": {"amenity": "cafe", "cuisine": "coffee_shop", "indoor": "room", "internet_access": "no", "level": "0", "name": "Ritazza", "opening_hours": "Mo-Sa 07:00-17:30; Su 09:30-17:30", "type": "multipolygon"}}]}